[{"OBJECT_NAME":"STARLINK-3738","OBJECT_ID":"2022-029AF","EPOCH":"2026-03-09T11:03:31.042080","MEAN_MOTION":15.08843239,"ECCENTRICITY":0.0001561,"INCLINATION":53.217,"RA_OF_ASC_NODE":80.1493,"ARG_OF_PERICENTER":89.9456,"MEAN_ANOMALY":270.1716,"EPHEMERIS_TYPE":0,"CLASSIFICATION_TYPE":"U","NORAD_CAT_ID":52117,"ELEMENT_SET_NO":999,"REV_AT_EPOCH":22076,"BSTAR":0.00012933539,"MEAN_MOTION_DOT":1.771e-5,"MEAN_MOTION_DDOT":0},{"OBJECT_NAME":"DMSP 5D-2 F11 DEB","OBJECT_ID":"1991-082AJ","EPOCH":"2026-03-09T06:39:32.486112","MEAN_MOTION":15.08629375,"ECCENTRICITY":0.00070318,"INCLINATION":98.5181,"RA_OF_ASC_NODE":189.4283,"ARG_OF_PERICENTER":237.8685,"MEAN_ANOMALY":152.6153,"EPHEMERIS_TYPE":0,"CLASSIFICATION_TYPE":"U","NORAD_CAT_ID":28321,"ELEMENT_SET_NO":999,"REV_AT_EPOCH":14288,"BSTAR":0.0082823802,"MEAN_MOTION_DOT":0.00131946,"MEAN_MOTION_DDOT":0}]
